SIRION PATHFINDER-2     
1 43759U 18099B   26177.10077101  .00005312  00000+0  29090-3 0  9998
2 43759  97.4252 225.9461 0007093 266.8901  93.1519 15.14622553413975
CORVUS BC4              
1 43767U 18099K   26177.11944909  .00004891  00000+0  28395-3 0  9995
2 43767  97.4065 219.8380 0007298 341.6016  18.4950 15.12561796413758
M2 PATHFINDER           
1 45727U 20037E   26177.09093858  .00002981  00000+0  21596-3 0  9997
2 45727  97.8135   8.4223 0012561 120.6544 239.5922 15.04706244326833
NETSAT-4                
1 46504U 20068U   26177.19804051  .00019512  00000+0  42747-3 0  9990
2 46504  97.8601 186.1637 0003169 289.3785  70.7119 15.44149820317166
NETSAT-3                
1 46505U 20068V   26177.01664231  .00020846  00000+0  47493-3 0  9991
2 46505  97.8652 184.1731 0003150 319.6519  40.4493 15.42967815317044
NETSAT-1                
1 46506U 20068W   26176.93738904  .00013918  00000+0  41434-3 0  9992
2 46506  97.8743 178.3152 0003946   3.7856 356.3415 15.34831232316648
NETSAT-2                
1 46507U 20068X   26176.96658838  .00024970  00000+0  50666-3 0  9990
2 46507  97.8614 185.8409 0002112 354.2562   5.8662 15.46358666317094
GREENCUBE (IO-117)      
1 53109U 22080E   26176.74430124 -.00000003  00000+0  00000+0 0  9999
2 53109  70.1444 295.2691 0008975 287.7502  72.2178  6.42583224 92615
SITRO-AIS 5 (KATYS)     
1 57176U 23091L   26177.16350317  .00013814  00000+0  48203-3 0  9996
2 57176  97.5063 241.1486 0012478  75.5660 284.6963 15.29652546165718
SITRO-AIS 6 (CHIRKIN)   
1 57192U 23091AC  26177.16324198  .00011231  00000+0  43713-3 0  9994
2 57192  97.5071 240.2197 0012901  78.8011 281.4677 15.26097535165659
SITRO-AIS 8 (ANOKHIN)   
1 57193U 23091AD  26177.16474492  .00016048  00000+0  51457-3 0  9993
2 57193  97.5059 242.7752 0011416  72.0322 288.2163 15.32365947165827
SITRO-AIS 7 (FARTUSHNIY)
1 57194U 23091AE  26177.16823488  .00011244  00000+0  44180-3 0  9995
2 57194  97.5069 240.0451 0012770  79.7697 280.4980 15.25782087165640
SITRO-AIS 10 (BURDAEV)  
1 57199U 23091AK  26177.15828411  .00022870  00000+0  59421-3 0  9991
2 57199  97.5084 247.9162 0006769  52.5072 307.6788 15.38937035166147
SITRO-AIS 9 (SHCHUKIN)  
1 57201U 23091AM  26177.18757247  .00021108  00000+0  55768-3 0  9999
2 57201  97.5083 247.6690 0007065  52.5123 307.6763 15.38437236166130
SITRO-AIS 12 (SMIRENNIY)
1 57204U 23091AQ  26177.17647836  .00021473  00000+0  56195-3 0  9993
2 57204  97.5095 248.1304 0006566  47.3009 312.8788 15.38729934166150
SITRO-AIS 11 (SHEFFER)  
1 57208U 23091AU  26177.18739701  .00021618  00000+0  55786-3 0  9997
2 57208  97.5093 248.3940 0006434  46.9815 313.1968 15.39160655166170
SITRO-AIS 25            
1 59066U 24039R   26177.21991851  .00002349  00000+0  18533-3 0  9993
2 59066  95.3909 241.2997 0142615 296.8234  61.8466 14.93554286126074
SITRO-AIS 26            
1 59067U 24039S   26177.22252686  .00002285  00000+0  18120-3 0  9992
2 59067  95.3909 241.1971 0142972 297.4121  61.2621 14.93348603126064
SITRO-AIS 27            
1 59068U 24039T   26177.19024233  .00003142  00000+0  24591-3 0  9996
2 59068  95.3912 241.4508 0141920 296.0859  62.5818 14.93769534126087
SITRO-AIS 28            
1 59071U 24039U   26177.16747838  .00002609  00000+0  20457-3 0  9994
2 59071  95.3910 241.4830 0141918 295.9965  62.6701 14.93801538126083
GRBBETA                 
1 60237U 24128C   26177.17962308  .00003387  00000+0  23759-3 0  9993
2 60237  61.9878 184.7144 0039494 136.5498 223.8719 15.06688449107622
OOV-CUBE (TUBSAT-30)    
1 60240U 24128F   26177.17123080  .00001669  00000+0  13738-3 0  9990
2 60240  61.9924 194.2449 0043514 135.7765 224.6817 15.02803473107460
ROBUSTA-3A (MEDITERRAN*)
1 60243U 24128J   26177.13064637  .00005543  00000+0  33022-3 0  9994
2 60243  61.9844 176.6146 0040161 130.0014 230.4618 15.11752310107773
LASARSAT                
1 62391U 24247Q   26177.14784644  .00033317  00000+0  65183-3 0  9993
2 62391  44.9730 211.8425 0007193  25.3187 334.8054 15.46870082 84706
CROCUBE                 
1 62394U 24247T   26175.39308509  .00030725  00000+0  56517-3 0  9994
2 62394  44.9701 218.9251 0007226  18.8099 341.3058 15.48681185 84464
FORESAIL-1 PRIME        
1 66778U 25276DS  26177.02298748  .00005552  00000+0  27024-3 0  9993
2 66778  97.4201 250.1321 0003943  85.4112 274.7572 15.18776013 31741
KNACKSAT-2              
1 67683U 98067XZ  26176.42038817  .00054321  00000+0  64307-3 0  9992
2 67683  51.6277 253.0425 0008709 252.4154 107.5888 15.60671397 21564
